{"type": "FeatureCollection", "features": [{"type": "Feature", "properties": {"norad_id": 2807, "name": "OPS 7218 (TRANSIT 16)", "group": "nnss", "lat": 76.91339677962311, "lon": -4.956319408544801, "alt_km": 1046.0618527540446, "timestamp": "2025-12-24T03:53:29.915615+00:00", "meta": {"OBJECT_NAME": "OPS 7218 (TRANSIT 16)", "OBJECT_ID": "1967-048A", "EPOCH": "2025-12-23T12:05:16.821888", "MEAN_MOTION": 13.50724459, "ECCENTRICITY": 0.0022159, "INCLINATION": 89.6733, "RA_OF_ASC_NODE": 353.659, "ARG_OF_PERICENTER": 85.416, "MEAN_ANOMALY": 31.5054, "EPHEMERIS_TYPE": 0, "CLASSIFICATION_TYPE": "U", "NORAD_CAT_ID": 2807, "ELEMENT_SET_NO": 999, "REV_AT_EPOCH": 88421, "BSTAR": 0.00014065, "MEAN_MOTION_DOT": 1.01e-06, "MEAN_MOTION_DDOT": 0}, "tle": {"line1": "1 02807U 67048A   25357.50366692  .00000101  00000+0  14065-3 0  9991", "line2": "2 02807  89.6733 353.6590 0022159  85.4160  31.5054 13.50724459884210"}}, "geometry": {"type": "Point", "coordinates": [-4.956319408544801, 76.91339677962311]}}, {"type": "Feature", "properties": {"norad_id": 2965, "name": "OPS 4947 (TRANSIT 17)", "group": "nnss", "lat": -74.09618036483437, "lon": -153.7960139612968, "alt_km": 1046.0842801715507, "timestamp": "2025-12-24T03:53:29.915637+00:00", "meta": {"OBJECT_NAME": "OPS 4947 (TRANSIT 17)", "OBJECT_ID": "1967-092A", "EPOCH": "2025-12-23T01:55:51.648096", "MEAN_MOTION": 13.53456258, "ECCENTRICITY": 0.00469498, "INCLINATION": 89.2486, "RA_OF_ASC_NODE": 23.6466, "ARG_OF_PERICENTER": 203.7716, "MEAN_ANOMALY": 182.5317, "EPHEMERIS_TYPE": 0, "CLASSIFICATION_TYPE": "U", "NORAD_CAT_ID": 2965, "ELEMENT_SET_NO": 999, "REV_AT_EPOCH": 87237, "BSTAR": 0.00019191812, "MEAN_MOTION_DOT": 1.41e-06, "MEAN_MOTION_DDOT": 0}, "tle": {"line1": "1 02965U 67092A   25357.08045889  .00000141  00000+0  19192-3 0  9990", "line2": "2 02965  89.2486  23.6466 0046949 203.7716 182.5317 13.53456258872372"}}, "geometry": {"type": "Point", "coordinates": [-153.7960139612968, -74.09618036483437]}}, {"type": "Feature", "properties": {"norad_id": 3133, "name": "OPS 7034 (TRANSIT 18)", "group": "nnss", "lat": -34.95668097820988, "lon": -86.30856759108137, "alt_km": 1127.8288773951253, "timestamp": "2025-12-24T03:53:29.915650+00:00", "meta": {"OBJECT_NAME": "OPS 7034 (TRANSIT 18)", "OBJECT_ID": "1968-012A", "EPOCH": "2025-12-23T12:55:24.513024", "MEAN_MOTION": 13.5156815, "ECCENTRICITY": 0.0074852, "INCLINATION": 90.0285, "RA_OF_ASC_NODE": 273.6697, "ARG_OF_PERICENTER": 138.088, "MEAN_ANOMALY": 34.4205, "EPHEMERIS_TYPE": 0, "CLASSIFICATION_TYPE": "U", "NORAD_CAT_ID": 3133, "ELEMENT_SET_NO": 999, "REV_AT_EPOCH": 57064, "BSTAR": 0.0002104, "MEAN_MOTION_DOT": 1.49e-06, "MEAN_MOTION_DDOT": 0}, "tle": {"line1": "1 03133U 68012A   25357.53847816  .00000149  00000+0  21040-3 0  9994", "line2": "2 03133  90.0285 273.6697 0074852 138.0880  34.4205 13.51568150570645"}}, "geometry": {"type": "Point", "coordinates": [-86.30856759108137, -34.95668097820988]}}, {"type": "Feature", "properties": {"norad_id": 4507, "name": "NNSS 19 (TRANSIT 19)", "group": "nnss", "lat": -72.72287957209471, "lon": -125.44276687339945, "alt_km": 961.7744575424185, "timestamp": "2025-12-24T03:53:29.915662+00:00", "meta": {"OBJECT_NAME": "NNSS 19 (TRANSIT 19)", "OBJECT_ID": "1970-067A", "EPOCH": "2025-12-23T05:08:36.510144", "MEAN_MOTION": 13.51317207, "ECCENTRICITY": 0.01702239, "INCLINATION": 90.0049, "RA_OF_ASC_NODE": 234.541, "ARG_OF_PERICENTER": 262.7201, "MEAN_ANOMALY": 95.4575, "EPHEMERIS_TYPE": 0, "CLASSIFICATION_TYPE": "U", "NORAD_CAT_ID": 4507, "ELEMENT_SET_NO": 999, "REV_AT_EPOCH": 72363, "BSTAR": 0.00015353902, "MEAN_MOTION_DOT": 1.17e-06, "MEAN_MOTION_DDOT": 0}, "tle": {"line1": "1 04507U 70067A   25357.21431146  .00000117  00000+0  15354-3 0  9999", "line2": "2 04507  90.0049 234.5410 0170223 262.7201  95.4575 13.51317207723630"}}, "geometry": {"type": "Point", "coordinates": [-125.44276687339945, -72.72287957209471]}}, {"type": "Feature", "properties": {"norad_id": 6909, "name": "NNSS 20 (TRANSIT 20)", "group": "nnss", "lat": 73.07434095212227, "lon": 74.40992913820203, "alt_km": 932.7990458015265, "timestamp": "2025-12-24T03:53:29.915673+00:00", "meta": {"OBJECT_NAME": "NNSS 20 (TRANSIT 20)", "OBJECT_ID": "1973-081A", "EPOCH": "2025-12-23T16:52:47.423424", "MEAN_MOTION": 13.71439948, "ECCENTRICITY": 0.0156233, "INCLINATION": 89.8561, "RA_OF_ASC_NODE": 254.89, "ARG_OF_PERICENTER": 45.8278, "MEAN_ANOMALY": 315.5602, "EPHEMERIS_TYPE": 0, "CLASSIFICATION_TYPE": "U", "NORAD_CAT_ID": 6909, "ELEMENT_SET_NO": 999, "REV_AT_EPOCH": 80511, "BSTAR": 0.00027862, "MEAN_MOTION_DOT": 2.84e-06, "MEAN_MOTION_DDOT": 0}, "tle": {"line1": "1 06909U 73081A   25357.70332666  .00000284  00000+0  27862-3 0  9999", "line2": "2 06909  89.8561 254.8900 0156233  45.8278 315.5602 13.71439948805111"}}, "geometry": {"type": "Point", "coordinates": [74.40992913820203, 73.07434095212227]}}, {"type": "Feature", "properties": {"norad_id": 10457, "name": "TRANSAT", "group": "nnss", "lat": -14.341473062480253, "lon": -101.71743500378369, "alt_km": 1065.0815177490977, "timestamp": "2025-12-24T03:53:29.915684+00:00", "meta": {"OBJECT_NAME": "TRANSAT", "OBJECT_ID": "1977-106A", "EPOCH": "2025-12-23T12:45:04.486752", "MEAN_MOTION": 13.48945191, "ECCENTRICITY": 0.0026382, "INCLINATION": 89.6477, "RA_OF_ASC_NODE": 78.2148, "ARG_OF_PERICENTER": 158.8355, "MEAN_ANOMALY": 213.4943, "EPHEMERIS_TYPE": 0, "CLASSIFICATION_TYPE": "U", "NORAD_CAT_ID": 10457, "ELEMENT_SET_NO": 999, "REV_AT_EPOCH": 36889, "BSTAR": 0.00013061, "MEAN_MOTION_DOT": 9.2e-07, "MEAN_MOTION_DDOT": 0}, "tle": {"line1": "1 10457U 77106A   25357.53130193  .00000092  00000+0  13061-3 0  9999", "line2": "2 10457  89.6477  78.2148 0026382 158.8355 213.4943 13.48945191368891"}}, "geometry": {"type": "Point", "coordinates": [-101.71743500378369, -14.341473062480253]}}, {"type": "Feature", "properties": {"norad_id": 12458, "name": "NOVA 1", "group": "nnss", "lat": 58.177846844242, "lon": -89.01387377119192, "alt_km": 1158.3894676537257, "timestamp": "2025-12-24T03:53:29.915695+00:00", "meta": {"OBJECT_NAME": "NOVA 1", "OBJECT_ID": "1981-044A", "EPOCH": "2025-12-23T12:48:56.171808", "MEAN_MOTION": 13.23279641, "ECCENTRICITY": 0.0015782, "INCLINATION": 89.8526, "RA_OF_ASC_NODE": 91.2327, "ARG_OF_PERICENTER": 77.4713, "MEAN_ANOMALY": 293.4259, "EPHEMERIS_TYPE": 0, "CLASSIFICATION_TYPE": "U", "NORAD_CAT_ID": 12458, "ELEMENT_SET_NO": 999, "REV_AT_EPOCH": 15329, "BSTAR": 0.00020928, "MEAN_MOTION_DOT": 9.8e-07, "MEAN_MOTION_DDOT": 0}, "tle": {"line1": "1 12458U 81044A   25357.53398347  .00000098  00000+0  20928-3 0  9991", "line2": "2 12458  89.8526  91.2327 0015782  77.4713 293.4259 13.23279641153298"}}, "geometry": {"type": "Point", "coordinates": [-89.01387377119192, 58.177846844242]}}, {"type": "Feature", "properties": {"norad_id": 15362, "name": "NOVA 3", "group": "nnss", "lat": -15.150834893559136, "lon": 80.70202399188004, "alt_km": 1161.9949662424879, "timestamp": "2025-12-24T03:53:29.915705+00:00", "meta": {"OBJECT_NAME": "NOVA 3", "OBJECT_ID": "1984-110A", "EPOCH": "2025-12-23T04:41:17.467584", "MEAN_MOTION": 13.2304577, "ECCENTRICITY": 0.00299135, "INCLINATION": 90.1218, "RA_OF_ASC_NODE": 80.6577, "ARG_OF_PERICENTER": 301.821, "MEAN_ANOMALY": 120.6756, "EPHEMERIS_TYPE": 0, "CLASSIFICATION_TYPE": "U", "NORAD_CAT_ID": 15362, "ELEMENT_SET_NO": 999, "REV_AT_EPOCH": 98837, "BSTAR": 0.00021033822, "MEAN_MOTION_DOT": 9.7e-07, "MEAN_MOTION_DDOT": 0}, "tle": {"line1": "1 15362U 84110A   25357.19534106  .00000097  00000+0  21034-3 0  9990", "line2": "2 15362  90.1218  80.6577 0029913 301.8210 120.6756 13.23045770988376"}}, "geometry": {"type": "Point", "coordinates": [80.70202399188004, -15.150834893559136]}}, {"type": "Feature", "properties": {"norad_id": 15935, "name": "OSCAR 30", "group": "nnss", "lat": -60.48290630273249, "lon": -80.25847104587669, "alt_km": 1256.5261918820906, "timestamp": "2025-12-24T03:53:29.915716+00:00", "meta": {"OBJECT_NAME": "OSCAR 30", "OBJECT_ID": "1985-066A", "EPOCH": "2025-12-23T05:25:30.096192", "MEAN_MOTION": 13.36079987, "ECCENTRICITY": 0.01689975, "INCLINATION": 90.1654, "RA_OF_ASC_NODE": 100.0186, "ARG_OF_PERICENTER": 54.6046, "MEAN_ANOMALY": 6.1693, "EPHEMERIS_TYPE": 0, "CLASSIFICATION_TYPE": "U", "NORAD_CAT_ID": 15935, "ELEMENT_SET_NO": 999, "REV_AT_EPOCH": 96593, "BSTAR": 0.00017369272, "MEAN_MOTION_DOT": 1.06e-06, "MEAN_MOTION_DDOT": 0}, "tle": {"line1": "1 15935U 85066A   25357.22604278  .00000106  00000+0  17369-3 0  9996", "line2": "2 15935  90.1654 100.0186 0168997  54.6046   6.1693 13.36079987965931"}}, "geometry": {"type": "Point", "coordinates": [-80.25847104587669, -60.48290630273249]}}, {"type": "Feature", "properties": {"norad_id": 15936, "name": "OSCAR 24", "group": "nnss", "lat": -51.72122281172036, "lon": 92.73450458833302, "alt_km": 1173.2963333841872, "timestamp": "2025-12-24T03:53:29.915726+00:00", "meta": {"OBJECT_NAME": "OSCAR 24", "OBJECT_ID": "1985-066B", "EPOCH": "2025-12-22T17:00:50.070240", "MEAN_MOTION": 13.35937122, "ECCENTRICITY": 0.01701816, "INCLINATION": 90.1791, "RA_OF_ASC_NODE": 92.4818, "ARG_OF_PERICENTER": 62.4983, "MEAN_ANOMALY": 102.6279, "EPHEMERIS_TYPE": 0, "CLASSIFICATION_TYPE": "U", "NORAD_CAT_ID": 15936, "ELEMENT_SET_NO": 999, "REV_AT_EPOCH": 96776, "BSTAR": 0.00014928667, "MEAN_MOTION_DOT": 9.3e-07, "MEAN_MOTION_DDOT": 0}, "tle": {"line1": "1 15936U 85066B   25356.70891285  .00000093  00000+0  14929-3 0  9999", "line2": "2 15936  90.1791  92.4818 0170181  62.4983 102.6279 13.35937122967763"}}, "geometry": {"type": "Point", "coordinates": [92.73450458833302, -51.72122281172036]}}]}